format  = 'OEF1.1'       ! file format
rectype = 'ML'           ! record type (1L/ML)
refsys  = ECLM J2000     ! default reference system
END_OF_HEADER
433
! Equinoctial elements: a, e*sin(LP), e*cos(LP), tan(i/2)*sin(LN), tan(i/2)*cos(LN), mean long.
 EQU   1.45830026594443E+00  0.186783794445621 -0.121558491634433 -0.078210351289478  0.053562540572184 338.7373489486515
 MJD     52470.00000000 TDT
 MAG  10.667  0.460
! RMS    3.00736E-10   1.78916E-08   2.97327E-08   2.52911E-08   2.24102E-08   3.66875E-06
! EIG   1.36371E-10   9.66279E-09   1.73458E-08   2.25601E-08   2.89404E-08   6.85959E-08
! WEA  -0.00216  -0.19755  -0.32134   0.00754   0.03764   0.92533
 COV   9.044201662592618E-20  1.196930927980725E-19 -9.282434780586420E-19
 COV   2.292823503480700E-19 -1.405321277819463E-19 -6.470057919423379E-16
 COV   3.201089066410187E-16  4.096327771156889E-16  9.742424924116498E-18
 COV  -2.090657492820844E-17 -4.544601953745216E-14  8.840326960917479E-16
 COV  -3.220921595941691E-17 -5.547186758083766E-17 -7.087955782184013E-14
 COV   6.396386740437629E-16 -2.582606520410304E-16  1.977843692350052E-15
 COV   5.022189243023963E-16  8.556073036205123E-15  1.345976001425543E-11
 NOR   5.376578383385544E+19  3.177314964230447E+17  3.475166067075061E+17
 NOR  -4.391194427623775E+16 -5.006258861059333E+16  5.525612552517541E+15
 NOR   1.114923716044009E+16 -1.071412427135300E+15 -8.073975165232560E+14
 NOR  -7.965678421504795E+14  4.790083383710032E+13  5.263818822526976E+15
 NOR   7.040684433387609E+12 -5.815053295785333E+13  4.084282276104395E+13
 NOR   2.058992360748938E+15  1.112671885362847E+15 -5.809740432233570E+12
 NOR   2.633088840443016E+15 -7.239571728446738E+12  7.221792829931867E+11
